SatCatId,ObjectName,LaunchYear,OrbitalPeriod,LaunchMass,StatusCode,Inclination,Status,UcsData,OrbitClassEstimated,LaunchSiteCountry,Owner,UseType,Purpose,LaunchVehicleClass,TLE1,TLE2,MeanMotion,Eccentricity,OrbitClass
51725,STARLINK-3522,2022,95.44,260.0,+,53.22,Active,1,LEO,USA,USA,Commercial,Communications,Falcon,1 51725U 22016M   23028.23654125 -.00000914  00000+0 -39361-4 0  9995,2 51725  53.2178  30.8554 0001267 104.1493 255.9639 15.08837329 52980,15.08837329,0.0001267,LEO
51726,STARLINK-3527,2022,95.44,260.0,+,53.22,Active,1,LEO,USA,USA,Commercial,Communications,Falcon,1 51726U 22016N   23028.26689973  .00004108  00000+0  27596-3 0  9991,2 51726  53.2168  20.7245 0001154  89.0109 271.1016 15.08847378 53069,15.08847378,0.0001154,LEO
51727,STARLINK-3532,2022,95.44,260.0,+,53.22,Active,1,LEO,USA,USA,Commercial,Communications,Falcon,1 51727U 22016P   23028.22918711 -.00000093  00000+0  12240-4 0  9994,2 51727  53.2195  30.8868 0001351  99.5688 260.5456 15.08837103 52918,15.08837103,0.0001351,LEO
51728,STARLINK-3448,2022,95.44,260.0,+,53.21,Active,1,LEO,USA,USA,Commercial,Communications,Falcon,1 51728U 22016Q   23028.25954074  .00001814  00000+0  13200-3 0  9997,2 51728  53.2147  20.7650 0001173  91.9567 268.1560 15.08843512 53133,15.08843512,0.0001173,LEO
51729,STARLINK-3523,2022,95.44,260.0,+,53.22,Active,1,LEO,USA,USA,Commercial,Communications,Falcon,1 51729U 22016R   23028.27057172 -.00000763  00000+0 -29831-4 0  9995,2 51729  53.2187  20.7174 0003039  23.8033 336.3100 15.08836286 53132,15.08836286,0.0003039,LEO
51730,STARLINK-3530,2022,95.44,260.0,+,53.22,Active,1,LEO,USA,USA,Commercial,Communications,Falcon,1 51730U 22016S   23028.25218251  .00005029  00000+0  33358-3 0  9998,2 51730  53.2156  20.7889 0001109  92.0171 268.0948 15.08867090 53060,15.0886709,0.0001109,LEO
51731,STARLINK-3514,2022,95.44,260.0,+,53.22,Active,1,LEO,USA,USA,Commercial,Communications,Falcon,1 51731U 22016T   23028.26322044  .00001639  00000+0  12105-3 0  9996,2 51731  53.2160  20.7418 0001070  89.5549 270.5566 15.08843365 53110,15.08843365,0.000107,LEO
51732,STARLINK-3518,2022,95.44,260.0,+,53.22,Active,1,LEO,USA,USA,Commercial,Communications,Falcon,1 51732U 22016U   23028.24850275  .00004266  00000+0  28592-3 0  9993,2 51732  53.2147  20.8112 0001074  84.8955 275.2160 15.08848031 53141,15.08848031,0.0001074,LEO
51733,STARLINK-3525,2022,95.44,260.0,+,53.22,Active,1,LEO,USA,USA,Commercial,Communications,Falcon,1 51733U 22016V   23028.18962322  .00001446  00000+0  10890-3 0  9993,2 51733  53.2171  21.0707 0001569  88.0816 272.0356 15.08840621 53052,15.08840621,0.0001569,LEO
51734,STARLINK-3450,2022,95.44,260.0,+,53.22,Active,1,LEO,USA,USA,Commercial,Communications,Falcon,1 51734U 22016W   23028.23746852  .00000818  00000+0  69495-4 0  9996,2 51734  53.2165  20.8603 0001069  84.3998 275.7116 15.08835767 53108,15.08835767,0.0001069,LEO
51735,STARLINK-3517,2022,95.44,260.0,+,53.22,Active,1,LEO,USA,USA,Commercial,Communications,Falcon,1 51735U 22016X   23028.24482250  .00001311  00000+0  10046-3 0  9993,2 51735  53.2175  20.8204 0001069  97.4647 262.6467 15.08840818 53111,15.08840818,0.0001069,LEO
51736,STARLINK-3447,2022,95.44,260.0,+,53.22,Active,1,LEO,USA,USA,Commercial,Communications,Falcon,1 51736U 22016Y   23028.23010415  .00001651  00000+0  12178-3 0  9998,2 51736  53.2171  20.8842 0001311 100.3908 259.7232 15.08840583 53127,15.08840583,0.0001311,LEO
51737,STARLINK-3509,2022,95.44,260.0,+,53.22,Active,1,LEO,USA,USA,Commercial,Communications,Falcon,1 51737U 22016Z   23028.24114221  .00001675  00000+0  12333-3 0  9999,2 51737  53.2186  20.8396 0001439 107.3941 252.7209 15.08839583 53050,15.08839583,0.0001439,LEO
51738,STARLINK-3515,2022,95.44,260.0,+,53.22,Active,1,LEO,USA,USA,Commercial,Communications,Falcon,1 51738U 22016AA  23028.22274336  .00000516  00000+0  50482-4 0  9993,2 51738  53.2165  20.9255 0001271  88.6019 271.5118 15.08841232 53102,15.08841232,0.0001271,LEO
51739,STARLINK-3516,2022,95.44,260.0,+,53.22,Active,1,LEO,USA,USA,Commercial,Communications,Falcon,1 51739U 22016AB  23028.23378409  .00003106  00000+0  21311-3 0  9997,2 51739  53.2163  20.8779 0001478  95.8623 264.2538 15.08843149 53116,15.08843149,0.0001478,LEO
51740,STARLINK-3500,2022,95.44,260.0,+,53.22,Active,1,LEO,USA,USA,Commercial,Communications,Falcon,1 51740U 22016AC  23028.21538339 -.00000023  00000+0  16676-4 0  9992,2 51740  53.2187  20.9583 0001445  98.8226 261.2930 15.08839082 53051,15.08839082,0.0001445,LEO
51741,STARLINK-3520,2022,95.44,260.0,+,53.22,Active,1,LEO,USA,USA,Commercial,Communications,Falcon,1 51741U 22016AD  23028.22642455  .00002754  00000+0  19102-3 0  9997,2 51741  53.2159  20.9115 0001165  88.5833 271.5292 15.08846074 53101,15.08846074,0.0001165,LEO
51742,STARLINK-3521,2022,95.44,260.0,+,53.22,Active,1,LEO,USA,USA,Commercial,Communications,Falcon,1 51742U 22016AE  23028.27794188  .00002510  00000+0  17571-3 0  9992,2 51742  53.2163  20.6742 0001103  91.3750 268.7369 15.08842240 53139,15.0884224,0.0001103,LEO
51743,STARLINK-3512,2022,95.44,260.0,+,53.22,Active,1,LEO,USA,USA,Commercial,Communications,Falcon,1 51743U 22016AF  23027.77470475  .00000822  00000+0  69729-4 0  9994,2 51743  53.2182  12.9283 0001483  88.2962 271.8200 15.08838218 52066,15.08838218,0.0001483,LEO
51744,STARLINK-3452,2022,95.44,260.0,+,53.22,Active,1,LEO,USA,USA,Commercial,Communications,Falcon,1 51744U 22016AG  23028.27153981  .00000283  00000+0  35887-4 0  9990,2 51744  53.2171  20.7078 0001066  88.7537 271.3578 15.08838717 53062,15.08838717,0.0001066,LEO
51745,STARLINK-3449,2022,95.44,260.0,+,53.22,Active,1,LEO,USA,USA,Commercial,Communications,Falcon,1 51745U 22016AH  23028.21906383  .00000688  00000+0  61317-4 0  9993,2 51745  53.2170  20.9402 0001368 102.4593 257.6552 15.08838667 53126,15.08838667,0.0001368,LEO
51746,STARLINK-3502,2022,95.44,260.0,+,53.22,Active,1,LEO,USA,USA,Commercial,Communications,Falcon,1 51746U 22016AJ  23028.23470280  .00013890  00000+0  88915-3 0  9999,2 51746  53.2176  10.8697 0001025  91.6014 268.5095 15.08837743 53255,15.08837743,0.0001025,LEO
51747,STARLINK-3446,2022,95.44,260.0,+,53.22,Active,1,LEO,USA,USA,Commercial,Communications,Falcon,1 51747U 22016AK  23028.27426143  .00005200  00000+0  34452-3 0  9996,2 51747  53.2164  20.6930 0001082  96.8960 263.2156 15.08843534 53134,15.08843534,0.0001082,LEO
51748,STARLINK-3501,2022,95.44,260.0,+,53.22,Active,1,LEO,USA,USA,Commercial,Communications,Falcon,1 51748U 22016AL  23027.76366070  .00000183  00000+0  29554-4 0  9995,2 51748  53.2175  12.9880 0001192 107.5920 252.5202 15.08842594 52062,15.08842594,0.0001192,LEO
51749,STARLINK-3451,2022,95.44,260.0,+,53.22,Active,1,LEO,USA,USA,Commercial,Communications,Falcon,1 51749U 22016AM  23028.23842415  .00000977  00000+0  79495-4 0  9991,2 51749  53.2161  20.8497 0001158  90.6775 269.4350 15.08836955 53103,15.08836955,0.0001158,LEO
51750,STARLINK-3505,2022,95.44,260.0,+,53.22,Active,1,LEO,USA,USA,Commercial,Communications,Falcon,1 51750U 22016AN  23028.21996780  .00014102  00000+0  90146-3 0  9996,2 51750  53.2165  10.9370 0001592  96.4309 263.6865 15.08876605 53257,15.08876605,0.0001592,LEO
51751,STARLINK-3506,2022,95.44,260.0,+,53.22,Active,1,LEO,USA,USA,Commercial,Communications,Falcon,1 51751U 22016AP  23027.36989428  .00002950  00000+0  20328-3 0  9996,2 51751  53.2167  14.7526 0001306  83.2966 276.8175 15.08852204 52002,15.08852204,0.0001306,LEO
51752,STARLINK-3511,2022,95.44,260.0,+,53.22,Active,1,LEO,USA,USA,Commercial,Communications,Falcon,1 51752U 22016AQ  23028.01759324 -.00001610  00000+0 -83152-4 0  9999,2 51752  53.2169  11.8446 0001408 100.8667 259.2484 15.08824413 53214,15.08824413,0.0001408,LEO
51753,STARLINK-3507,2022,95.44,260.0,+,53.22,Active,1,LEO,USA,USA,Commercial,Communications,Falcon,1 51753U 22016AR  23027.75998455  .00000266  00000+0  34804-4 0  9994,2 51753  53.2180  13.0017 0001010 111.5218 248.5882 15.08836865 52065,15.08836865,0.000101,LEO
51754,STARLINK-3457,2022,95.44,260.0,+,53.22,Active,1,LEO,USA,USA,Commercial,Communications,Falcon,1 51754U 22016AS  23028.20989972  .00010530  00000+0  67864-3 0  9996,2 51754  53.2160  10.9826 0000817  77.3142 282.7941 15.08842339 53247,15.08842339,8.17e-05,LEO
51755,STARLINK-3460,2022,95.44,260.0,+,53.22,Active,1,LEO,USA,USA,Commercial,Communications,Falcon,1 51755U 22016AT  23028.21262452  .00001770  00000+0  12929-3 0  9993,2 51755  53.2178  10.9651 0001411  93.3136 266.8018 15.08841564 53242,15.08841564,0.0001411,LEO
51756,STARLINK-3513,2022,95.44,260.0,+,53.22,Active,1,LEO,USA,USA,Commercial,Communications,Falcon,1 51756U 22016AU  23028.24942327  .00007076  00000+0  46230-3 0  9990,2 51756  53.2163  10.8068 0001181 101.1942 258.9183 15.08836176 53210,15.08836176,0.0001181,LEO
51757,STARLINK-3459,2022,95.44,260.0,+,53.21,Active,1,LEO,USA,USA,Commercial,Communications,Falcon,1 51757U 22016AV  23028.24574990 -.00002974  00000+0 -16892-3 0  9993,2 51757  53.2143  10.8283 0001003  98.0200 262.0906 15.08822570 53258,15.0882257,0.0001003,LEO
51758,STARLINK-3458,2022,95.44,260.0,+,53.22,Active,1,LEO,USA,USA,Commercial,Communications,Falcon,1 51758U 22016AW  23028.24301846 -.00000816  00000+0 -33157-4 0  9999,2 51758  53.2168  10.8394 0001275 103.4082 256.7052 15.08842032 53289,15.08842032,0.0001275,LEO
51759,STARLINK-3456,2022,95.44,260.0,+,53.21,Active,1,LEO,USA,USA,Commercial,Communications,Falcon,1 51759U 22016AX  23028.24206411  .00001517  00000+0  11336-3 0  9993,2 51759  53.2142  10.8417 0001439  88.2361 271.8796 15.08841302 53271,15.08841302,0.0001439,LEO
51768,STARLINK-3622,2022,95.44,260.0,+,53.22,Active,1,LEO,USA,USA,Commercial,Communications,Falcon,1 51768U 22017A   23028.20618571  .00000070  00000+0  22462-4 0  9990,2 51768  53.2171  40.9963 0001159 110.5009 249.6108 15.08836131 52486,15.08836131,0.0001159,LEO
